#dP2023  3 18  0  0  0.00000000      96 __u+U IGS14 FIT  IAC
## 2253 518400.00000000   900.00000000 60021 0.0000000000000
+  120   C06C07C08C09C10C11C12C13C14C16C19C20C21C22C23C24C25
+        C26C27C28C29C30C32C33C34C35C36C37C38C39C40C41C42C43
+        C44C45C46E01E02E03E04E05E07E08E09E10E11E12E13E14E15
+        E18E19E21E24E25E26E27E30E31E33E34E36G01G02G03G04G05
+        G06G07G08G09G10G11G12G13G14G15G16G17G18G19G20G21G22
+        G23G24G25G26G27G28G29G30G31G32J02J03J04R01R02R03R04
+        R05R07R08R09R11R12R13R14R15R16R17R18R19R20R21R22R24
+        R25  0  0  0  0  0  0  0  0  0  0  0  0  0  0  0  0
++         8  7  7  9  7  7  7  7  7  8  6  6  6  6  5  6  5
++         6  6  6  6  6  6  6  6  6  6  6  6  6  6  6  6  6
++         6  6  6  4  4  4  4  4  4  4  4  4  4  4  4  5  4
++         4  5  4  4  4  4  4  4  4  4  5  4  6  3  3  3  3
++         6  4  4  3  4  3  3  4  4  4  4  4  4  3  4  4  4
++         4  4  3  3  4  3  3  4  3  3  9  9  9  8  7  7  7
++         7  7  7  7  7  6  8  7  6  7  7  7  8  8  7  6  6
++         8  0  0  0  0  0  0  0  0  0  0  0  0  0  0  0  0
%c M  cc GPS ccc cccc cccc cccc cccc ccccc ccccc ccccc ccccc
%c cc cc ccc ccc cccc cccc cccc cccc ccccc ccccc ccccc ccccc
%f  1.2500000  1.025000000  0.00000000000  0.000000000000000
%f  0.0000000  0.000000000  0.00000000000  0.000000000000000
%i    0    0    0    0      0      0      0      0         0
%i    0    0    0    0      0      0      0      0         0
/* INFORMATION & ANALYSIS CENTER (IAC)            FINAL DATA
/* S/V CLOCKS ARE ALIGNED TO GNSS TIME                      
/* G:C1WC2W R:C1PC2P E:C1XC5X C:C2IC6I J:C1CC2S             
/* PCV:IGS20_2247 OL/AL:FES2004  NONE     YN ORB:CoN CLK:CoN
*  2023 03 18  5 45  0.00000000
PC06  -8436.673218  39987.229240  -9760.233993   -196.264463
PC07  -7090.835905  26608.931989  31982.182038    -36.819243
PC08 -19922.760982  27739.372147 -24837.785898    517.521250
PC09  -3167.859584  41744.898204    197.947599    869.220244
PC10   1620.028214  29245.158797  30746.498183    -11.763741
PC11  -5762.813400 -27077.268997   3525.579220    712.112832
PC12   5898.931196 -23549.110883 -13726.291175    513.530918
PC13 -13252.202803  28467.293073 -28106.123746    232.072129
PC14 -11904.271579 -17704.293099  17981.092834      6.591683
PC16  -9402.154530  39103.682602 -11916.450634    135.469320
PC19  20527.676804  15594.276466 -10682.642399   -896.312145
PC20   3501.797392  17171.346838 -21705.285414    673.811608
PC21  17055.610515  -8430.425795  20446.094338   -908.785119
PC22  26554.392961   5005.409022   7032.857880   -580.546798
PC23 -22405.494281   2949.648211 -16377.505911   -889.913698
PC24   9100.332651 -21525.451207 -15250.318552   -281.565774
PC25 -10763.324151 -12234.906172 -22666.175423     89.654834
PC26  21082.759864 -18251.082661   -344.009802    -93.444408
PC27 -10994.742012  16944.677056  19226.321793    112.182816
PC28 -16206.474212  -2232.553561  22610.423118     82.220426
PC29  12739.775665  21603.867269 -12235.792470     94.976052
PC30   1061.607377  27277.981268   5714.360819      0.814623
PC32 -17025.040233   8520.335134 -20377.677919   -597.345045
PC33 -20498.205784 -15536.053270  10814.900071   -871.002690
PC34  -1879.675737 -27490.151417  -4522.415247    128.967519
PC35  16444.018253   2789.003355 -22379.368500    662.501032
PC36   9804.851654  13025.978349  22663.987513   -557.731243
PC37 -22087.047351  17049.792414   -976.203119   -801.270091
PC38 -25780.235153  28844.209923 -16888.150442     65.712484
PC39 -11272.428170  36087.774604 -18389.085383     -2.217214
PC40 -10410.735076  20684.270995  35228.748589    -17.856170
PC41 -26618.923114  -5389.581384  -6341.103780   -737.165256
PC42  -1962.987373 -16951.145736  22125.194661   -781.727562
PC43 -12366.027421 -22233.645104  11487.529990     12.287085
PC44  10589.354172 -17221.783696 -19265.940982     47.730774
PC45  22495.510995  -3378.498503  16142.219907    -73.581572
PC46  -7653.159922  21229.517167  16433.420661    -40.632668
PE01 -14161.339915 -13519.563834 -22209.040554    -15.007026
PE02  14622.147821  13318.841886  22005.571239     26.984546
PE03  17652.099319  23753.875179   -803.235515   -660.254728
PE04 -22448.358393 -10348.050949 -16274.343675    -80.809809
PE05   2329.828803  23500.562218 -17837.856009    -85.414411
PE07  14253.460596  -9361.998216  24204.479563    -30.706013
PE08  22420.350779  10543.990718  16208.847495    -52.873625
PE09 -14234.110708   9135.566945 -24284.714460   -872.821621
PE10 -18484.261619  10106.436065  20786.098380   -519.878861
PE11 -17359.038463  20020.770424  13160.018155   1285.444407
PE12 -16791.103844   -581.894862  24364.945327   -462.568669
PE13  17507.073869 -19411.205002 -13898.983198    -17.802235
PE14  21826.790301  21558.108602  -8936.375846    171.493418
PE15  16621.065839    872.559215 -24472.985346     -8.215689
PE18 -14142.811387 -19352.911936   2909.530380   -270.639296
PE19 -15992.432204 -24681.493847   3386.793524  -2982.306186
PE21   6390.489026 -17013.761116 -23369.529879   -518.144499
PE24 -25533.369275  10621.256008  10572.185990  -1171.263545
PE25  -6788.539048  16994.141567  23265.463209   -601.534963
PE26   7608.706456 -28086.720714   5449.550012     48.711034
PE27  24974.761299 -11133.834936 -11321.370465   -537.476764
PE30  28479.762214   1774.938670   7818.244200    -19.736861
PE31 -28670.087889  -1244.022227  -7274.607838   -518.846222
PE33  -5920.471160 -20507.412959  20519.063089   -448.902691
PE34   6079.063637  20360.830250 -20610.583959    -35.476531
PE36  -8132.514544  28065.176208  -4674.525946    -27.847480
PG01 -14129.583499  21708.934678   4617.694591    201.700665
PG02  10346.203528 -24517.835060  -1429.731594   -613.504701
PG03 -16332.513871  12641.165469 -16757.070050   -347.789811
PG04  -6079.309876  16330.297711 -20002.641521     -4.516959
PG05  25982.457496  -5105.034406   2612.608705   -119.898052
PG06   9553.913661  12461.069118 -21337.469337    582.045025
PG07  -4901.613396  24522.000600   8620.510766    220.813561
PG08 -14915.130092   4973.263004  21388.862368   -113.459484
PG09   4261.043259  22391.331956 -13668.892145   -198.429471
PG10 -14820.552502 -11644.536530  19015.589533    -29.010034
PG11  16936.185376  -1692.595683 -20372.388719   -133.754398
PG12  18794.211686 -10903.957936 -15490.457695   -352.878515
PG13  17099.694972   3676.374520  19872.831221    492.195012
PG14  11630.638375  13571.715105  19693.406641     -0.914722
PG15  14244.427499  -7290.445448  20776.836463     22.550971
PG16 -26807.049415    -69.130041    219.203243   -514.750763
PG17  12780.168581  23194.897415   1486.022473    706.059715
PG18   2743.918483 -23552.650313  11817.869730   -184.502537
PG19  17071.218052  18516.855273  -9096.269548    291.530620
PG20  25199.861241   -401.091809  -8016.693859    444.350134
PG21 -16223.659898  15635.429738  13931.286653    154.334056
PG22 -17969.764317 -16044.188503 -10926.068682    447.346136
PG23  -1834.752872 -14850.524226  21949.152453     11.250446
PG24  14544.632890 -19855.315832   9066.955430   -116.172636
PG25   8119.642302 -15284.603885 -20390.199171    428.576377
PG26 -23025.435696  -5834.367347 -12340.205037    241.978171
PG27 -19105.703154  -6944.974242  17071.098285     78.648759
PG28  -9269.670254 -14349.834842 -20367.897130     45.862768
PG29    425.680779 -21013.881521 -16238.102252   -591.352579
PG30   5054.480658  19222.113967  17592.016290   -526.440401
PG31 -12685.584607  -8957.296666 -21696.430154   -211.863956
PG32 -16007.768783 -21287.253458  -1227.650917   -426.595800
PJ02 -31056.772495  24025.590937  20404.810558     -1.214667
PJ03 -28579.078222  26145.532228  21715.267431      1.092687
PJ04 -28397.439242  19912.808479 -18842.060599     94.158147
PR01  13541.448433  -3945.808644  21264.441675     24.974790
PR02  -4103.043913 -14110.315368  20917.438042    -23.119131
PR03 -18435.742021 -15735.754486   8091.712055     74.381960
PR04 -22180.676557  -8839.315870  -8958.215779    179.824253
PR05 -13974.474744   2882.474949 -21133.115127    109.497914
PR07  18868.567396  15529.056023  -7183.075214     51.974504
PR08  22213.661336   8470.853399   9269.391826    -69.941986
PR09  -8427.744769  15452.520878  18441.808602    109.766710
PR11  20403.865429  -3391.836682  14942.890325    -20.207568
PR12  21321.430809 -13596.634575  -3253.431846     25.748514
PR13  10383.779809 -15518.728397 -17396.393131    -33.066002
PR14  -8483.758345  -7888.090830 -22718.837869     24.449894
PR15 -20975.022458   3907.629781 -13965.962785     90.402926
PR16 -21332.307779  13643.813239   2942.405038     12.498187
PR17  -6007.684389 -20067.815342  14540.865986    613.476121
PR18 -10149.876154  -4488.285234  22986.871325     72.019270
PR19  -9820.467703  11984.371927  20260.851937   -225.709124
PR20  -3170.790982  25080.208353   3213.284905    -89.547768
PR21   6454.473088  18912.316802 -15865.235049   -381.174917
PR22  10512.701591   3824.450459 -22896.928464     75.380599
PR24   2101.016145 -25294.125271  -2499.099645    154.634261
PR25   5129.690282  20550.849831 -14219.402707     58.076125
EOF
